HIMAWARI-8              
1 40267U 14060A   24061.55813299 -.00000265  00000+0  00000+0 0  9997
2 40267   0.0241 188.0710 0000861 165.2897 148.0692  1.00271589 34365
